NORAD_CAT_ID,OBJECT_NAME,OBJECT_TYPE,EPOCH,MEAN_MOTION,ECCENTRICITY,INCLINATION,RA_OF_ASC_NODE,ARG_OF_PERICENTER,MEAN_ANOMALY,BSTAR,MEAN_MOTION_DOT,MEAN_MOTION_DDOT,TLE_LINE0,TLE_LINE1,TLE_LINE2,SEMIMAJOR_AXIS,PERIOD,APOGEE,PERIGEE,DECAYED
53840.0,STARLINK-4766,PAYLOAD,2022-11-18 06:00:00,15.73229679,0.0003466,53.2169,320.8315,345.3174,242.0249,-0.0043586,-0.00573519,0.0,0 STARLINK-4766,1 53840U 22114Y   22322.25001157 -.00573519  00000-0 -43586-2 0  9992,2 53840  53.2169 320.8315 0003466 345.3174 242.0249 15.73229679 10056,6727.811,91.531,352.00699999999995,347.344,0.0
53840.0,STARLINK-4766,PAYLOAD,2022-11-18 14:00:01,15.72928474,0.0004201,53.2168,319.1821,302.6778,13.382,-0.009,-0.01117641,0.0,0 STARLINK-4766,1 53840U 22114Y   22322.58334491 -.01117641  00000-0 -90000-2 0  9992,2 53840  53.2168 319.1821 0004201 302.6778  13.3820 15.72928474 10100,6728.669,91.549,353.361,347.708,0.0
53840.0,STARLINK-4766,PAYLOAD,2022-11-18 22:00:00,15.72135795,0.0006121,53.2173,317.5326,281.3663,122.7945,-0.0095325,-0.01142553,0.0,0 STARLINK-4766,1 53840U 22114Y   22322.91667824 -.01142553  00000-0 -95325-2 0  9993,2 53840  53.2173 317.5326 0006121 281.3663 122.7945 15.72135795  1308,6730.931,91.595,356.916,348.676,0.0
53840.0,STARLINK-4766,PAYLOAD,2022-11-19 08:00:01,15.71096796,0.0006511,53.2174,315.4776,270.6005,332.3327,-0.0096754,-0.01113137,0.0,0 STARLINK-4766,1 53840U 22114Y   22323.33334491 -.01113137  00000-0 -96754-2 0  9994,2 53840  53.2174 315.4776 0006511 270.6005 332.3327 15.71096796 10229,6733.898,91.656,360.148,351.379,0.0
53840.0,STARLINK-4766,PAYLOAD,2022-11-19 14:00:01,15.70457015,0.0005228,53.2164,314.2444,270.7703,306.7025,-0.0095754,-0.01075499,0.0,0 STARLINK-4766,1 53840U 22114Y   22323.58334491 -.01075499  00000-0 -95754-2 0  9998,2 53840  53.2164 314.2444 0005228 270.7703 306.7025 15.70457015  1300,6735.727,91.693,361.11300000000006,354.07,0.0
53840.0,STARLINK-4766,PAYLOAD,2022-11-19 22:00:00,15.69700226,0.0005795,53.2167,312.6009,268.3001,34.3202,-0.010579,-0.01143211,0.0,0 STARLINK-4766,1 53840U 22114Y   22323.91667824 -.01143211  00000-0 -10579-1 0  9993,2 53840  53.2167 312.6009 0005795 268.3001  34.3202 15.69700226 10310,6737.892,91.737,363.661,355.852,0.0
53840.0,STARLINK-4766,PAYLOAD,2022-11-20 14:00:01,15.68074295,7.659999999999999e-05,53.2168,309.3242,52.7242,57.3196,-0.011432,-0.01169997,0.0,0 STARLINK-4766,1 53840U 22114Y   22324.58334491 -.01169997  00000-0 -11432-1 0  9996,2 53840  53.2168 309.3242 0000766  52.7242  57.3196 15.68074295  1303,6742.549,91.832,364.93,363.897,0.0
53840.0,STARLINK-4766,PAYLOAD,2022-11-20 22:00:00,15.67238637,0.0001239,53.2175,307.6865,75.2009,117.0965,-0.011478,-0.01138453,0.0,0 STARLINK-4766,1 53840U 22114Y   22324.91667824 -.01138453  00000-0 -11478-1 0  9995,2 53840  53.2175 307.6865 0001239  75.2009 117.0965 15.67238637  1309,6744.945,91.881,367.646,365.974,0.0
53840.0,STARLINK-4766,PAYLOAD,2022-11-21 08:00:01,15.66222819,0.0001033,53.2173,305.6468,84.4314,299.2933,-0.011983,-0.01140083,0.0,0 STARLINK-4766,1 53840U 22114Y   22325.33334491 -.01140083  00000-0 -11983-1 0  9996,2 53840  53.2173 305.6468 0001033  84.4314 299.2933 15.66222819 10534,6747.861,91.941,370.423,369.029,0.0
53840.0,STARLINK-4766,PAYLOAD,2022-11-21 14:00:01,15.65640213,0.0001041,53.2165,304.4222,72.05199999999998,281.7843,-0.012718,-0.01177777,0.0,0 STARLINK-4766,1 53840U 22114Y   22325.58334491 -.01177777  00000-0 -12718-1 0  9990,2 53840  53.2165 304.4222 0001041  72.0520 281.7843 15.65640213  1303,6749.535,91.975,372.103,370.698,0.0
53840.0,STARLINK-4766,PAYLOAD,2022-11-21 22:00:00,15.6479011,0.0001094,53.2165,302.7907,71.5008,1.6629,-0.012533,-0.01126826,0.0,0 STARLINK-4766,1 53840U 22114Y   22325.91667824 -.01126826  00000-0 -12533-1 0  9990,2 53840  53.2165 302.7907 0001094  71.5008   1.6629 15.64790110  1309,6751.979,92.025,374.583,373.106,0.0
53840.0,STARLINK-4766,PAYLOAD,2022-11-22 08:00:01,15.63790901,0.0001245,53.2169,300.7584,83.4332,177.4824,-0.013338,-0.01149944,0.0,0 STARLINK-4766,1 53840U 22114Y   22326.33334491 -.01149944  00000-0 -13338-1 0  9998,2 53840  53.2169 300.7584 0001245  83.4332 177.4824 15.63790901 10690,6754.855,92.084,377.561,375.879,0.0
53840.0,STARLINK-4766,PAYLOAD,2022-11-22 14:00:01,15.63176515,0.0001155,53.2168,299.5376,72.4672,156.4423,-0.013635,-0.01147476,0.0,0 STARLINK-4766,1 53840U 22114Y   22326.58335648 -.01147476  00000-0 -13635-1 0  9998,2 53840  53.2168 299.5376 0001155  72.4672 156.4423 15.63176515  1307,6756.625,92.12,379.271,377.71,0.0
53840.0,STARLINK-4766,PAYLOAD,2022-11-22 22:00:00,15.62348587,0.0001098,53.2167,297.9123,66.1181,239.1087,-0.013783,-0.01124976,0.0,0 STARLINK-4766,1 53840U 22114Y   22326.91667824 -.01124976  00000-0 -13783-1 0  9993,2 53840  53.2167 297.9123 0001098  66.1181 239.1087 15.62348587  1303,6759.012,92.169,381.619,380.135,0.0
53840.0,STARLINK-4766,PAYLOAD,2022-11-23 08:00:01,15.61338785,0.0001182,53.2174,295.8872,73.4634,55.8545,-0.014484,-0.01135355,0.0,0 STARLINK-4766,1 53840U 22114Y   22327.33334491 -.01135355  00000-0 -14484-1 0  9993,2 53840  53.2174 295.8872 0001182  73.4634  55.8545 15.61338785 10857,6761.926,92.229,384.59,382.992,0.0
53840.0,STARLINK-4766,PAYLOAD,2022-11-23 14:00:01,15.60736147,0.0001205,53.2168,294.6709,63.3143,31.7249,-0.014986,-0.01146361,0.0,0 STARLINK-4766,1 53840U 22114Y   22327.58334491 -.01146361  00000-0 -14986-1 0  9996,2 53840  53.2168 294.6709 0001205  63.3143  31.7249 15.60736147  1302,6763.666,92.264,386.346,384.716,0.0
53840.0,STARLINK-4766,PAYLOAD,2022-11-23 22:00:00,15.59934361,0.0001286,53.2167,293.0518,65.8973,102.5779,-0.015652,-0.0115941,0.0,0 STARLINK-4766,1 53840U 22114Y   22327.91667824 -.01159410  00000-0 -15652-1 0  9992,2 53840  53.2167 293.0518 0001286  65.8973 102.5779 15.59934361  1300,6765.984,92.312,388.719,386.979,0.0
53840.0,STARLINK-4766,PAYLOAD,2022-11-24 08:00:01,15.58894757,9.9e-05,53.2171,291.0341,79.7986,269.1163,-0.015843,-0.01130583,0.0,0 STARLINK-4766,1 53840U 22114Y   22328.33334491 -.01130583  00000-0 -15843-1 0  9992,2 53840  53.2171 291.0341 0000990  79.7986 269.1163 15.58894757 11004,6768.9919999999975,92.373,391.527,390.186,0.0
53840.0,STARLINK-4766,PAYLOAD,2022-11-24 14:00:01,15.58289929,0.0001079,53.2169,289.8221,77.6096,234.8273,-0.016352,-0.01139419,0.0,0 STARLINK-4766,1 53840U 22114Y   22328.58334491 -.01139419  00000-0 -16352-1 0  9992,2 53840  53.2169 289.8221 0001079  77.6096 234.8273 15.58289929  1303,6770.743,92.409,393.339,391.877,0.0
53840.0,STARLINK-4766,PAYLOAD,2022-11-24 22:00:00,15.57492016,0.0001105,53.2166,288.2089,62.7847,320.1531,-0.017161,-0.01158163,0.0,0 STARLINK-4766,1 53840U 22114Y   22328.91667824 -.01158163  00000-0 -17161-1 0  9994,2 53840  53.2166 288.2089 0001105  62.7847 320.1531 15.57492016  1302,6773.055,92.456,395.669,394.172,0.0
53840.0,STARLINK-4766,PAYLOAD,2022-11-25 08:00:01,15.56452511,0.000122,53.2171,286.1986,81.0269,118.6822,-0.017325,-0.0112763,0.0,0 STARLINK-4766,1 53840U 22114Y   22329.33334491 -.01127630  00000-0 -17325-1 0  9999,2 53840  53.2171 286.1986 0001220  81.0269 118.6822 15.56452511 11164,6776.071,92.518,398.762,397.109,0.0
53840.0,STARLINK-4766,PAYLOAD,2022-11-25 14:00:01,15.55844835,0.0001281999999999,53.2173,284.9909,71.5535,89.4795,-0.01781,-0.01132655,0.0,0 STARLINK-4766,1 53840U 22114Y   22329.58334491 -.01132655  00000-0 -17810-1 0  9998,2 53840  53.2173 284.9909 0001282  71.5535  89.4795 15.55844835  1307,6777.835,92.554,400.569,398.831,0.0
53840.0,STARLINK-4766,PAYLOAD,2022-11-25 22:00:00,15.55049853,0.0001262,53.2168,283.3838,71.1458,157.4532,-0.018755,-0.01155532,0.0,0 STARLINK-4766,1 53840U 22114Y   22329.91667824 -.01155532  00000-0 -18755-1 0  9992,2 53840  53.2168 283.3838 0001262  71.1458 157.4532 15.55049853  1305,6780.145,92.602,402.865,401.154,0.0
53840.0,STARLINK-4766,PAYLOAD,2022-11-26 06:00:00,15.5423129,0.0001129,53.2173,281.7815,79.9658,215.2327,-0.019233,-0.01150205,0.0,0 STARLINK-4766,1 53840U 22114Y   22330.25001157 -.01150205  00000-0 -19233-1 0  9996,2 53840  53.2173 281.7815 0001129  79.9658 215.2327 15.54231290 11301,6782.525,92.65,405.156,403.624,0.0
53840.0,STARLINK-4766,PAYLOAD,2022-11-26 14:00:01,15.53422445,0.0001049,53.217,280.1775,61.3706,299.4467,-0.019943,-0.01156993,0.0,0 STARLINK-4766,1 53840U 22114Y   22330.58334491 -.01156993  00000-0 -19943-1 0  9990,2 53840  53.2170 280.1775 0001049  61.3706 299.4467 15.53422445  1318,6784.879,92.699,407.456,406.033,0.0
53840.0,STARLINK-4766,PAYLOAD,2022-11-26 22:00:00,15.5261833,0.0001237,53.2168,278.5763,54.9013,10.5533,-0.020765,-0.01168616,0.0,0 STARLINK-4766,1 53840U 22114Y   22330.91667824 -.01168616  00000-0 -20765-1 0  9995,2 53840  53.2168 278.5763 0001237  54.9013  10.5533 15.52618330  1305,6787.222,92.747,409.926,408.247,0.0
53840.0,STARLINK-4766,PAYLOAD,2022-11-27 06:00:00,15.51780157,0.0001271,53.2171,276.9799,74.3126,54.8172,-0.020742,-0.01135892,0.0,0 STARLINK-4766,1 53840U 22114Y   22331.25001157 -.01135892  00000-0 -20742-1 0  9999,2 53840  53.2171 276.9799 0001271  74.3126  54.8172 15.51780157 11463,6789.665,92.797,412.393,410.668,0.0
53840.0,STARLINK-4766,PAYLOAD,2022-11-27 14:00:01,15.50885258,0.0001330999999999,53.2173,275.3815,80.2302,111.6052,-0.0176419999999999,-0.00951784,0.0,0 STARLINK-4766,1 53840U 22114Y   22331.58334491 -.00951784  00000-0 -17642-1 0  9995,2 53840  53.2173 275.3815 0001331  80.2302 111.6052 15.50885258  1304,6792.276999999999,92.85,415.046,413.23800000000006,0.0
53840.0,STARLINK-4766,PAYLOAD,2022-11-27 22:00:00,15.5012054,0.0001435,53.2166,273.7865,85.1067,168.4202,-0.0061922,-0.00339907,0.0,0 STARLINK-4766,1 53840U 22114Y   22331.91667824 -.00339907  00000-0 -61922-2 0  9999,2 53840  53.2166 273.7865 0001435  85.1067 168.4202 15.50120540  1303,6794.511,92.896,417.351,415.401,0.0
